{
  "norad_id": 66466,
  "name": "STARLINK-35388",
  "history": [
    {
      "epoch": "2026-03-28T17:56:25.540512Z",
      "apogee_km": 485.3966349563125,
      "perigee_km": 480.46476227319545,
      "latitude_deg": 1.70596994326085e-05,
      "longitude_deg": 93.0468763319046,
      "height_km": 483.7143808989889,
      "semi_major_axis_km": 6861.067698614754,
      "eccentricity": 0.00035941,
      "inclination_deg": 43.0007,
      "raan_deg": 188.3168,
      "arg_perigee_deg": 245.9301,
      "mean_anomaly_deg": 114.1175,
      "mean_motion_rev_day": 15.27619541
    }
  ]
}